#
# TLE data for GNSS satellites based on 2012/11/22 TLE
# satellite common name should be Gnn, Rnn, Enn, Jnn, Cnn, 1nn
#
G32 # GPS BIIA-10 (PRN 32)    
1 20959U 90103A   12326.01320418 -.00000050  00000-0  10000-3 0  7786
2 20959  54.4534 232.3021 0119068 332.2023  27.2123  2.00579137161037
G26 # GPS BIIA-14 (PRN 26)    
1 22014U 92039A   12325.81536321 -.00000058  00000-0  10000-3 0  5730
2 22014  56.2236 292.4583 0206545  69.2511 292.9409  2.00565843142762
G27 # GPS BIIA-15 (PRN 27)    
1 22108U 92058A   12324.42729282 -.00000078  00000-0  10000-3 0  4978
2 22108  56.2588 345.4269 0221027 301.9247  55.9824  2.00565966147916
G09 # GPS BIIA-21 (PRN 09)    
1 22700U 93042A   12326.87500000 -.00000077  00000-0  00000+0 0  8176
2 22700  56.3852 346.7885 0168183  93.5224 223.3375  2.00661045142113
G30 # GPS BIIA-22 (PRN 30)    
1 22779U 93054A   12325.68792299 -.00000083  00000-0  10000-3 0  4938
2 22779  55.1160  41.5637 0107723  92.8077 268.4549  2.00555680140853
G04 # GPS BIIA-23 (PRN 04)    
1 22877U 93068A   12325.58462019  .00000054  00000-0  10000-3 0  1771
2 22877  53.7281 167.2077 0102017  52.9533 308.0381  2.00560791139749
G06 # GPS BIIA-24 (PRN 06)    
1 23027U 94016A   12326.28496928  .00000034  00000-0  10000-3 0  1359
2 23027  53.8311 103.8455 0074453 334.5757  25.0443  2.00561835137065
G03 # GPS BIIA-25 (PRN 03)    
1 23833U 96019A   12325.80697720  .00000026  00000-0  10000-3 0  3318
2 23833  53.4449  99.3948 0156517  71.8324 289.8461  2.00553934122039
G10 # GPS BIIA-26 (PRN 10)    
1 23953U 96041A   12326.16483577 -.00000046  00000-0  10000-3 0  8193
2 23953  54.1251 228.3798 0117807  43.7501 317.2188  2.00556302119830
G13 # GPS BIIR-2  (PRN 13)    
1 24876U 97035A   12326.17379101 -.00000061  00000-0  10000-3 0  2911
2 24876  56.3665 292.8252 0045674 120.9744 239.4670  2.00572959112366
G08 # GPS BIIA-28 (PRN 08)    
1 25030U 97067A   12325.30878127 -.00000081  00000-0  10000-3 0  2344
2 25030  57.1975 353.3525 0128334 194.6361 165.0356  2.00568364110241
G11 # GPS BIIR-3  (PRN 11)    
1 25933U 99055A   12325.92571691  .00000066  00000-0  10000-3 0  7278
2 25933  50.9043 151.0289 0135372  63.9375 297.4913  2.00561750 96179
G20 # GPS BIIR-4  (PRN 20)    
1 26360U 00025A   12325.54682876 -.00000040  00000-0  10000-3 0  8159
2 26360  53.2310 224.5358 0050564  72.2272 288.3801  2.00571644 91867
G28 # GPS BIIR-5  (PRN 28)    
1 26407U 00040A   12325.39154031 -.00000068  00000-0  10000-3 0  7685
2 26407  56.2149  50.3604 0185196 256.5028 101.4515  2.00568578 90539
G14 # GPS BIIR-6  (PRN 14)    
1 26605U 00071A   12325.98261927 -.00000061  00000-0  10000-3 0  7848
2 26605  55.9526 291.2327 0070395 244.9338 114.3207  2.00564864 88140
G18 # GPS BIIR-7  (PRN 18)    
1 26690U 01004A   12325.85577841 -.00000045  00000-0  10000-3 0  6616
2 26690  53.1977 227.5912 0138014 238.3379 120.3597  2.00554924 86559
G16 # GPS BIIR-8  (PRN 16)    
1 27663U 03005A   12326.22850769 -.00000075  00000-0  10000-3 0   892
2 27663  56.3082  49.9581 0064947   0.0330 359.9862  2.00551411 71911
G21 # GPS BIIR-9  (PRN 21)    
1 27704U 03010A   12325.27331520  .00000050  00000-0  10000-3 0  9775
2 27704  53.3632 167.4955 0196236 234.2522 123.9708  2.00551013 70686
G22 # GPS BIIR-10 (PRN 22)    
1 28129U 03058A   12325.90372582 -.00000046  00000-0  10000-3 0  5505
2 28129  53.0662 227.7607 0064201 245.9095 113.4686  2.00563206 65402
G19 # GPS BIIR-11 (PRN 19)    
1 28190U 04009A   12325.84506469  .00000055  00000-0  10000-3 0  5448
2 28190  55.0850 112.4973 0085889  14.4882 345.7433  2.00568012 63571
G23 # GPS BIIR-12 (PRN 23)    
1 28361U 04023A   12326.12730085 -.00000065  00000-0  10000-3 0  3630
2 28361  54.8951 288.0571 0082004 194.5314 165.2236  2.00550039 61664
G02 # GPS BIIR-13 (PRN 02)    
1 28474U 04045A   12325.63537817  .00000056  00000-0  10000-3 0  2494
2 28474  53.7820 166.2475 0116842 204.9460 154.5411  2.00550308 59019
G17 # GPS BIIRM-1 (PRN 17)    
1 28874U 05038A   12326.48358117  .00000048  00000-0  10000-3 0  5099
2 28874  55.2405 109.4623 0078699 229.7156 129.5821  2.00553844 52453
G31 # GPS BIIRM-2 (PRN 31)    
1 29486U 06042A   12326.09460664 -.00000080  00000-0  10000-3 0  8947
2 29486  56.2022 348.5431 0081099 310.1256  49.2029  2.00554089 45144
G12 # GPS BIIRM-3 (PRN 12)    
1 29601U 06052A   12325.54183130 -.00000071  00000-0  10000-3 0  9295
2 29601  56.2598  48.9349 0039672   4.9290 355.1350  2.00562920 44043
G15 # GPS BIIRM-4 (PRN 15)    
1 32260U 07047A   12325.85106045 -.00000065  00000-0  00000+0 0  6351
2 32260  54.0458 285.8713 0049510   1.3544 358.6448  2.00565235 37445
G29 # GPS BIIRM-5 (PRN 29)    
1 32384U 07062A   12326.16506503  .00000050  00000-0  10000-3 0  6766
2 32384  55.2714 109.9697 0019578 294.3507  65.4357  2.00553958 36171
G07 # GPS BIIRM-6 (PRN 07)    
1 32711U 08012A   12326.25992932 -.00000080  00000-0  10000-3 0  4347
2 32711  55.9130 348.3243 0061117 193.7932 166.0785  2.00558914 34381
G05 # GPS BIIRM-8 (PRN 05)    
1 35752U 09043A   12325.72959664 -.00000043  00000-0  10000-3 0  1847
2 35752  54.4211 227.2208 0029397  11.3314 348.7820  2.00550887 23953
G25 # GPS BIIF-1  (PRN 25)    
1 36585U 10022A   12326.08230013 -.00000079  00000-0  10000-3 0    41
2 36585  55.6222  46.8454 0016766  35.3710 324.7650  2.00568288 18204
G01 # GPS BIIF-2  (PRN 01)    
1 37753U 11036A   12325.45866154  .00000056  00000-0  00000+0 0  4667
2 37753  55.0096 167.2649 0012870  21.6413 338.4750  2.00558712  9876
G24 # GPS BIIF-3  (PRN 24)    
1 38833U 12053A   12325.44532288 -.00000082  00000-0  00000+0 0   176
2 38833  54.9736 346.8985 0003215 296.5693  63.5909  2.00557773   935

R08 # COSMOS 2413 (712)       
1 28509U 04053B   12326.72081188 -.00000046  00000-0  10000-3 0  1947
2 28509  63.2776 236.6353 0004613 166.1820  70.0607  2.13100659 61524
R17 # COSMOS 2419 (714)       
1 28915U 05050A   12326.13723222  .00000086  00000-0  00000+0 0  9477
2 28915  64.9238 122.1246 0015485 354.6461 137.0627  2.13102059 53769
R15 # COSMOS 2425 (716)       
1 29670U 06062A   12326.31450302 -.00000061  00000-0  10000-3 0  6540
2 29670  65.8830   0.8272 0020617 340.6757   0.6896  2.13105242 45966
R10 # COSMOS 2426 (717)       
1 29671U 06062B   12326.08284727 -.00000062  00000-0  10000-3 0  6722
2 29671  65.8994   0.8889 0018753 173.5098 220.4874  2.13103175 45973
R14 # COSMOS 2424 (715)       
1 29672U 06062C   12326.78481576 -.00000060  00000-0  10000-3 0  6752
2 29672  65.8846   0.8175 0018161 172.9922 219.3530  2.13103144 45983
R19 # COSMOS 2433 (720)       
1 32275U 07052A   12326.04738745  .00000086  00000-0  10000-3 0  3997
2 32275  64.9372 121.8745 0001345 179.1140 153.2402  2.13096481 39470
R20 # COSMOS 2432 (719)       
1 32276U 07052B   12326.65256433  .00000085  00000-0  10000-3 0  3847
2 32276  64.9498 121.8985 0011345 348.8461  41.8674  2.13098105 39498
R13 # COSMOS 2434 (721)       
1 32393U 07065A   12326.41531603 -.00000062  00000-0  00000+0 0  2356
2 32393  65.5078   0.7618 0004089 153.3691 358.5795  2.13102940 38199
R14S # COSMOS 2435 (722)       
1 32394U 07065B   12326.39055144 -.00000062  00000-0  10000-3 0  1483
2 32394  65.5114   0.7576 0017991 353.7609  95.1287  2.13103879 38131
R11 # COSMOS 2436 (723)       
1 32395U 07065C   12325.74727654 -.00000063  00000-0  10000-3 0  1520
2 32395  65.5206   0.8062 0015498 346.4150 104.7056  2.13103066 38112
R18 # COSMOS 2442 (724)       
1 33378U 08046A   12326.09958694  .00000085  00000-0  10000-3 0  1838
2 33378  64.8520 121.3727 0022412 337.3696  82.4869  2.13103808 32347
R21 # COSMOS 2443 (725)       
1 33379U 08046B   12325.91389094  .00000085  00000-0  10000-3 0  1684
2 33379  64.8605 121.4268 0020975 177.7425 324.8380  2.13101717 32349
R22M # COSMOS 2444 (726)       
1 33380U 08046C   12326.73093813  .00000084  00000-0  10000-3 0  1744
2 33380  64.8687 121.4213 0023395 327.5938  38.3347  2.13102721 32351
R03M # COSMOS 2447 (727)       
1 33466U 08067A   12326.16524472 -.00000046  00000-0  00000+0 0  1091
2 33466  64.1185 240.7466 0004588 267.3281 126.4775  2.13102159 30405
R08M # COSMOS 2449 (729)       
1 33467U 08067B   12326.72097520 -.00000049  00000-0  10000-3 0  1147
2 33467  64.1069 240.6962 0004691 285.4633 310.1018  2.13102052 30431
R02 # COSMOS 2448 (728)       
1 33468U 08067C   12326.37723191 -.00000047  00000-0  10000-3 0  1068
2 33468  64.1108 240.7154 0005833 306.9382 292.8400  2.13101791 30417
R01 # COSMOS 2456 (730)       
1 36111U 09070A   12326.19049998 -.00000046  00000-0  00000+0 0  8530
2 36111  64.3470 240.9163 0005968 315.9527 187.3262  2.13102046 22858
R06 # COSMOS 2457 (733)       
1 36112U 09070B   12326.43790465 -.00000048  00000-0  00000+0 0  8374
2 36112  64.3286 240.8641 0005980 164.6264 303.2923  2.13101717 22863
R05 # COSMOS 2458 (734)       
1 36113U 09070C   12326.04281111 -.00000045  00000-0  10000-3 0  8445
2 36113  64.3341 240.8742 0001767 343.6072 226.7495  2.13102065 22852
R22 # COSMOS 2459 (731)       
1 36400U 10007A   12326.73093813  .00000084  00000-0  10000-3 0  7803
2 36400  64.8372 121.1753 0029728 357.7845   7.4588  2.13102594 21228
R24 # COSMOS 2461 (735)       
1 36401U 10007B   12325.52550976  .00000084  00000-0  10000-3 0  7796
2 36401  64.8296 121.2085 0007523  97.3351 333.4574  2.13102663 21191
R23 # COSMOS 2460 (732)       
1 36402U 10007C   12326.46858377  .00000084  00000-0  10000-3 0  7865
2 36402  64.8199 121.1703 0002781 130.9854 347.0923  2.13102279 21218
R16 # COSMOS 2466 (738)       
1 37137U 10041A   12326.00764190 -.00000064  00000-0  10000-3 0  6507
2 37137  65.0865   1.5572 0022420 159.8051 263.4386  2.13102602 17289
R12 # COSMOS 2465 (737)       
1 37138U 10041B   12326.74461473 -.00000063  00000-0  00000+0 0  6567
2 37138  65.1027   1.5794 0036740 170.7948 278.7553  2.13102956 17292
R09 # COSMOS 2464 (736)       
1 37139U 10041C   12324.24705159 -.00000064  00000-0  00000+0 0  6418
2 37139  65.1048   1.6546 0018558  10.1617  97.9309  2.13102852 17249
